COSMOS 2251 DEB         
1 34726U 93036YU  21267.67865591  .00000389  00000-0  10417-3 0  9994
2 34726  74.0324  19.3407 0049811 193.3139 166.6711 14.50975585661156
COSMOS 2251 DEB         
1 34728U 93036YW  21268.53847554  .00000463  00000-0  10946-3 0  9991
2 34728  74.0234 319.2690 0053198 143.6757 216.8037 14.56204582663127
COSMOS 2251 DEB         
1 34729U 93036YX  21268.67804182  .00001163  00000-0  30080-3 0  9996
2 34729  74.0285  63.4356 0028053 205.7140 167.1773 14.50838262659772
COSMOS 2251 DEB         
1 34732U 93036ZA  21268.76819311  .00000069  00000-0  27457-4 0  9999
2 34732  74.0429  82.8617 0041831 258.3971 114.3255 14.45133480658992
COSMOS 2251 DEB         
1 34735U 93036ZD  21267.66779506  .00007179  00000-0  10272-2 0  9995
2 34735  74.0298 247.5073 0053336 339.3412  20.5605 14.75806777668153
COSMOS 2251 DEB         
1 34736U 93036ZE  21269.05247421  .00001249  00000-0  34283-3 0  9998
2 34736  74.0337 131.4443 0018190 206.2210 275.6016 14.48032500659050
COSMOS 2251 DEB         
1 34737U 93036ZF  21268.50253958  .00005578  00000-0  10372-2 0  9991
2 34737  74.0381  44.0570 0027197  21.0372  52.0589 14.65131213661795
COSMOS 2251 DEB         
1 34738U 93036ZG  21269.05276149  .00000207  00000-0  70769-4 0  9992
2 34738  74.0165 125.9580 0050562 283.2656 199.7826 14.41724826656840
COSMOS 2251 DEB         
1 34739U 93036ZH  21268.94880307  .00003138  00000-0  41564-3 0  9993
2 34739  74.0256 146.6319 0056395 266.1959 106.5947 14.79262677672714
COSMOS 2251 DEB         
1 34741U 93036ZK  21268.20146349  .00013298  00000-0  75055-3 0  9996
2 34741  73.9795 332.1202 0079339  90.3578 270.6705 15.10466463676481
COSMOS 2251 DEB         
1 34744U 93036ZN  21268.31322132  .00004400  00000-0  69605-3 0  9996
2 34744  74.0094 228.6826 0037048  12.8686 104.3224 14.72143100667777
COSMOS 2251 DEB         
1 34745U 93036ZP  21268.80036838  .00019603  00000-0  15071-2 0  9994
2 34745  74.0180  68.3697 0010014 213.0568 146.9995 15.01638049673944
COSMOS 2251 DEB         
1 34746U 93036ZQ  21268.54043333  .00002865  00000-0  52010-3 0  9991
2 34746  74.0270 319.0122 0020107  67.1534  52.4971 14.66570826667170
COSMOS 2251 DEB         
1 34747U 93036ZR  21268.88982590  .00004423  00000-0  39774-3 0  9990
2 34747  73.9872 330.2700 0044190 160.0128 200.2801 14.95234280677397
COSMOS 2251 DEB         
1 34750U 93036ZU  21268.55647634  .00000766  00000-0  23039-3 0  9998
2 34750  74.1178 197.7968 0054865 209.6594 325.9375 14.43420389660092
COSMOS 2251 DEB         
1 34751U 93036ZV  21268.99483113  .00002037  00000-0  54846-3 0  9990
2 34751  74.0064 164.7264 0039438 223.0946 149.8336 14.48173508660395
COSMOS 2251 DEB         
1 34752U 93036ZW  21268.43422409  .00000797  00000-0  13225-3 0  9998
2 34752  74.0230 154.0081 0089254 316.2783  43.1341 14.69512024670841
COSMOS 2251 DEB         
1 34754U 93036ZY  21267.52590429  .00000169  00000-0  65017-4 0  9997
2 34754  74.0331 188.2426 0031404 319.0320 216.7219 14.37502032660269
COSMOS 2251 DEB         
1 34755U 93036ZZ  21269.14740186  .00000195  00000-0  20914-3 0  9990
2 34755  73.9258 233.0627 0419398 178.7471 197.4156 13.46800670618870
COSMOS 2251 DEB         
1 34756U 93036AAA 21268.81845833  .00000373  00000-0  33814-3 0  9990
2 34756  74.0041 100.4637 0359903 297.8402  58.6673 13.61478074624418
COSMOS 2251 DEB         
1 34758U 93036AAC 21267.99841494  .00000364  00000-0  34572-3 0  9991
2 34758  74.1058 246.2218 0400851   3.0657 357.2768 13.53244525620503
COSMOS 2251 DEB         
1 34759U 93036AAD 21268.54835573  .00006259  00000-0  95321-3 0  9993
2 34759  74.0169 327.7504 0020104   5.8809 354.2596 14.74002213669179
COSMOS 2251 DEB         
1 34760U 93036AAE 21268.39659786  .00000545  00000-0  28022-3 0  9994
2 34760  74.0653 156.8657 0103453 225.3640 254.5615 14.14932877648870
COSMOS 2251 DEB         
1 34761U 93036AAF 21268.79054466  .00000410  00000-0  16489-3 0  9998
2 34761  74.0296 297.9981 0044139 344.0804  15.8955 14.30706525655967
COSMOS 2251 DEB         
1 34763U 93036AAH 21267.27533889  .00003837  00000-0  86235-3 0  9995
2 34763  74.1737 267.2480 0053833 121.9010 251.8943 14.55920370659625
COSMOS 2251 DEB         
1 34784U 93036AAM 21268.99122436  .00000466  00000-0  12137-3 0  9995
2 34784  74.0119   2.2567 0059026 186.4419 173.5991 14.51453806662294
COSMOS 2251 DEB         
1 34787U 93036AAQ 21268.75253573  .00004284  00000-0  69841-3 0  9995
2 34787  74.0152 271.5788 0012468  56.4646 303.7715 14.71244065659202
COSMOS 2251 DEB         
1 34788U 93036AAR 21268.70106922  .00002372  00000-0  21017-3 0  9995
2 34788  73.9896 252.6495 0136166  44.8612 128.3835 14.89982432682393
COSMOS 2251 DEB         
1 34789U 93036AAS 21269.06622222  .00002592  00000-0  91868-3 0  9997
2 34789  74.2055 129.8664 0101952   5.0117 120.3381 14.32113156651854
COSMOS 2251 DEB         
1 34790U 93036AAT 21268.99473917  .00000504  00000-0  24313-3 0  9997
2 34790  74.0546 116.3202 0109107 191.3742 289.9911 14.18131672648631
COSMOS 2251 DEB         
1 34791U 93036AAU 21269.12684953  .00005909  00000-0  64393-3 0  9994
2 34791  74.0209  52.0713 0045738 221.4358 138.3351 14.87435745677639
COSMOS 2251 DEB         
1 34792U 93036AAV 21269.14176824  .00000686  00000-0  21890-3 0  9992
2 34792  74.0260 166.7830 0017627 267.0168 215.4678 14.41530863654441
COSMOS 2251 DEB         
1 34793U 93036AAW 21268.58379185  .00000210  00000-0  81227-4 0  9999
2 34793  74.0050 204.4862 0053625   0.1766 174.3551 14.35283432652274
COSMOS 2251 DEB         
1 34796U 93036AAZ 21269.06579069  .00000464  00000-0  14809-3 0  9991
2 34796  74.0365 192.4272 0117706 312.1439  59.4810 14.38800312659241
COSMOS 2251 DEB         
1 34797U 93036ABA 21268.62819182  .00000998  00000-0  41887-3 0  9994
2 34797  73.9855  34.7492 0092910 134.9695 225.9033 14.24892511653911
COSMOS 2251 DEB         
1 34813U 93036ABC 21268.45550535  .00000531  00000-0  52233-3 0  9998
2 34813  73.9331  51.7311 0501158  10.3778 350.7211 13.36169175610087
COSMOS 2251 DEB         
1 34814U 93036ABD 21268.26775965  .00000467  00000-0  19513-3 0  9996
2 34814  73.8958 274.7762 0059555 118.8848 254.7162 14.28024184653054
COSMOS 2251 DEB         
1 34815U 93036ABE 21268.53104413  .00000670  00000-0  14323-3 0  9991
2 34815  74.0474 325.0505 0080589  72.1870 288.8066 14.58857655660749
COSMOS 2251 DEB         
1 34816U 93036ABF 21268.32317310  .00000407  00000-0  38619-3 0  9993
2 34816  73.8868 125.4178 0387130 105.2716   8.7363 13.54562432619150
COSMOS 2251 DEB         
1 34818U 93036ABH 21268.69205053  .00000179  00000-0  73400-4 0  9999
2 34818  74.0355 238.3431 0026525 328.8459 203.7704 14.33932160652911
COSMOS 2251 DEB         
1 34819U 93036ABJ 21268.44442001  .00000806  00000-0  24712-3 0  9997
2 34819  74.0265 158.1236 0025438 260.2941 274.5844 14.43160132659091
COSMOS 2251 DEB         
1 34822U 93036ABM 21268.06397525  .00007726  00000-0  79347-3 0  9991
2 34822  74.0102 139.3456 0015078 267.5376  92.4080 14.90451932666866
COSMOS 2251 DEB         
1 34823U 93036ABN 21268.28093034  .00000363  00000-0  93270-4 0  9996
2 34823  74.0421 107.5103 0180313 218.0827 140.7476 14.44821443660883
COSMOS 2251 DEB         
1 34845U 93036ABP 21268.30518657  .00000176  00000-0  61844-4 0  9990
2 34845  74.0263 130.0522 0023476 305.1523  54.7433 14.41775283652553
COSMOS 2251 DEB         
1 34846U 93036ABQ 21267.97950961  .00000518  00000-0  18405-3 0  9995
2 34846  74.0347 230.1029 0032720 312.1302  47.7071 14.36562051652311
COSMOS 2251 DEB         
1 34847U 93036ABR 21268.77207837  .00001963  00000-0  18287-3 0  9995
2 34847  74.0428 285.1691 0111058  30.7777 329.9852 14.90459765449692
COSMOS 2251 DEB         
1 34850U 93036ABU 21268.81751424  .00003470  00000-0  58877-3 0  9994
2 34850  74.0102 309.9441 0049552  63.5824  55.2295 14.68807319663188
COSMOS 2251 DEB         
1 34852U 93036ABW 21269.22345892  .00000074  00000-0  35014-4 0  9996
2 34852  74.0339 208.0885 0017468 325.2344  34.7665 14.35413563654494
COSMOS 2251 DEB         
1 34853U 93036ABX 21268.51486951  .00005533  00000-0  69983-3 0  9996
2 34853  74.0701 192.8767 0047911 245.9787 113.6372 14.81265233667443
COSMOS 2251 DEB         
1 34854U 93036ABY 21268.63127084  .00000811  00000-0  16159-3 0  9990
2 34854  74.0339 249.6336 0084128  32.5119 328.1189 14.61556671493111
COSMOS 2251 DEB         
1 34856U 93036ACA 21268.67172473  .00001557  00000-0  28681-3 0  9999
2 34856  74.0129 228.8963 0075574  26.9741 147.2911 14.64645003663852
COSMOS 2251 DEB         
1 34857U 93036ACB 21267.63757056  .00000434  00000-0  12858-3 0  9993
2 34857  74.0202 121.3310 0084224 260.4609 155.8205 14.44488943655812
COSMOS 2251 DEB         
1 34859U 93036ACD 21268.71032084  .00001783  00000-0  44504-3 0  9993
2 34859  74.0385  76.9917 0007549 221.9138 152.4151 14.52320586657674
COSMOS 2251 DEB         
1 34860U 93036ACE 21268.37220767  .00003548  00000-0  70043-3 0  9992
2 34860  74.0275   7.4932 0023447 106.4463 253.9283 14.62652336659883
COSMOS 2251 DEB         
1 34861U 93036ACF 21269.05606142  .00001462  00000-0  39743-3 0  9999
2 34861  74.0323 128.2437 0027539 209.1473 277.4916 14.48199071655918
COSMOS 2251 DEB         
1 34873U 93036ACL 21268.47957903  .00007741  00000-0  10850-2 0  9994
2 34873  74.0001 347.0468 0029606  37.7738 322.5507 14.77343988665341
COSMOS 2251 DEB         
1 34874U 93036ACM 21268.30561510  .00000421  00000-0  17838-3 0  9994
2 34874  74.0431 355.7271 0060496  33.9933  22.9512 14.27415199650265
COSMOS 2251 DEB         
1 34875U 93036ACN 21269.10793139  .00000319  00000-0  10460-3 0  9998
2 34875  74.0472 141.8081 0017971 285.4286 203.4404 14.42292367655470
COSMOS 2251 DEB         
1 34877U 93036ACQ 21268.55740035  .00005749  00000-0  32435-3 0  9993
2 34877  73.9351  81.1281 0079761 321.9041  37.6527 15.10685979681219
